{"type": "FeatureCollection", "features": [ {"type": "Feature", "properties": {"norad_id": 30892, "name": "FENGYUN 1C DEB", "group": "fengyun-1c-debris", "lat": 71.67956001073921, "lon": -98.26706790091471, "alt_km": 830.1440841378608, "timestamp": "2025-12-15T07:02:37.896000+00:00", "meta": {"OBJECT_NAME": "FENGYUN 1C DEB", "OBJECT_ID": "1999-025AYE", "EPOCH": "2025-12-13T14:04:34.549536", "MEAN_MOTION": 14.18924802, "ECCENTRICITY": 0.00379168, "INCLINATION": 99.663, "RA_OF_ASC_NODE": 290.842, "ARG_OF_PERICENTER": 186.6804, "MEAN_ANOMALY": 173.3868, "EPHEMERIS_TYPE": 0, "CLASSIFICATION_TYPE": "U", "NORAD_CAT_ID": 30892, "ELEMENT_SET_NO": 999, "REV_AT_EPOCH": 64315, "BSTAR": 0.00057005886, "MEAN_MOTION_DOT": 1.145e-05, "MEAN_MOTION_DDOT": 0}, "tle": {"line1": "1 30892U 99025AYE 25347.58651099  .00001145  00000+0  57006-3 0  9992", "line2": "2 30892  99.6630 290.8420 0037916 186.6804 173.3868 14.18924802643155"}}, "geometry": {"type": "Point", "coordinates": [-98.26706790091471, 71.67956001073921]}}, {"type": "Feature", "properties": {"norad_id": 30893, "name": "FENGYUN 1C DEB", "group": "fengyun-1c-debris", "lat": -73.21938869096594, "lon": 44.9776021450844, "alt_km": 1134.4887360868534, "timestamp": "2025-12-15T07:02:37.896011+00:00", "meta": {"OBJECT_NAME": "FENGYUN 1C DEB", "OBJECT_ID": "1999-025AYF", "EPOCH": "2025-12-14T20:11:53.415744", "MEAN_MOTION": 13.94071237, "ECCENTRICITY": 0.03094941, "INCLINATION": 98.256, "RA_OF_ASC_NODE": 15.7906, "ARG_OF_PERICENTER": 87.038, "MEAN_ANOMALY": 92.1417, "EPHEMERIS_TYPE": 0, "CLASSIFICATION_TYPE": "U", "NORAD_CAT_ID": 30893, "ELEMENT_SET_NO": 999, "REV_AT_EPOCH": 94914, "BSTAR": 0.00088232497, "MEAN_MOTION_DOT": 1.703e-05, "MEAN_MOTION_DDOT": 0}, "tle": {"line1": "1 30893U 99025AYF 25348.84159046  .00001703  00000+0  88232-3 0  9993", "line2": "2 30893  98.2560  15.7906 0309494  87.0380  92.1417 13.94071237949146"}}, "geometry": {"type": "Point", "coordinates": [44.9776021450844, -73.21938869096594]}}, {"type": "Feature", "properties": {"norad_id": 30895, "name": "FENGYUN 1C DEB", "group": "fengyun-1c-debris", "lat": 14.508372522476117, "lon": -119.92902379740153, "alt_km": 682.143655857366, "timestamp": "2025-12-15T07:02:37.896023+00:00", "meta": {"OBJECT_NAME": "FENGYUN 1C DEB", "OBJECT_ID": "1999-025AYH", "EPOCH": "2025-12-14T03:35:42.376992", "MEAN_MOTION": 14.31552577, "ECCENTRICITY": 0.02181367, "INCLINATION": 98.7192, "RA_OF_ASC_NODE": 56.6458, "ARG_OF_PERICENTER": 119.9581, "MEAN_ANOMALY": 272.5941, "EPHEMERIS_TYPE": 0, "CLASSIFICATION_TYPE": "U", "NORAD_CAT_ID": 30895, "ELEMENT_SET_NO": 999, "REV_AT_EPOCH": 97813, "BSTAR": 0.00045587271, "MEAN_MOTION_DOT": 1.526e-05, "MEAN_MOTION_DDOT": 0}, "tle": {"line1": "1 30895U 99025AYH 25348.14979603  .00001526  00000+0  45587-3 0  9996", "line2": "2 30895  98.7192  56.6458 0218136 119.9581 272.5941 14.31552577978130"}}, "geometry": {"type": "Point", "coordinates": [-119.92902379740153, 14.508372522476117]}}, {"type": "Feature", "properties": {"norad_id": 30898, "name": "FENGYUN 1C DEB", "group": "fengyun-1c-debris", "lat": 68.21769420165937, "lon": -122.17936236384726, "alt_km": 467.7028591762237, "timestamp": "2025-12-15T07:02:37.896033+00:00", "meta": {"OBJECT_NAME": "FENGYUN 1C DEB", "OBJECT_ID": "1999-025AYL", "EPOCH": "2025-12-14T13:23:12.208416", "MEAN_MOTION": 15.22395398, "ECCENTRICITY": 0.0041541, "INCLINATION": 99.0246, "RA_OF_ASC_NODE": 260.3744, "ARG_OF_PERICENTER": 105.4513, "MEAN_ANOMALY": 255.1313, "EPHEMERIS_TYPE": 0, "CLASSIFICATION_TYPE": "U", "NORAD_CAT_ID": 30898, "ELEMENT_SET_NO": 999, "REV_AT_EPOCH": 66399, "BSTAR": 0.0022877348, "MEAN_MOTION_DOT": 0.00054377, "MEAN_MOTION_DDOT": 0}, "tle": {"line1": "1 30898U 99025AYL 25348.55778019  .00054377  00000+0  22877-2 0  9990", "line2": "2 30898  99.0246 260.3744 0041541 105.4513 255.1313 15.22395398663990"}}, "geometry": {"type": "Point", "coordinates": [-122.17936236384726, 68.21769420165937]}}, {"type": "Feature", "properties": {"norad_id": 30899, "name": "FENGYUN 1C DEB", "group": "fengyun-1c-debris", "lat": -65.80748001556015, "lon": 45.86193262431395, "alt_km": 768.2534406720852, "timestamp": "2025-12-15T07:02:37.896043+00:00", "meta": {"OBJECT_NAME": "FENGYUN 1C DEB", "OBJECT_ID": "1999-025AYM", "EPOCH": "2025-12-14T12:17:18.075264", "MEAN_MOTION": 14.3365891, "ECCENTRICITY": 0.00316037, "INCLINATION": 99.1765, "RA_OF_ASC_NODE": 246.1222, "ARG_OF_PERICENTER": 285.3037, "MEAN_ANOMALY": 251.2819, "EPHEMERIS_TYPE": 0, "CLASSIFICATION_TYPE": "U", "NORAD_CAT_ID": 30899, "ELEMENT_SET_NO": 999, "REV_AT_EPOCH": 96680, "BSTAR": 0.0024535206, "MEAN_MOTION_DOT": 6.799e-05, "MEAN_MOTION_DDOT": 0}, "tle": {"line1": "1 30899U 99025AYM 25348.51201476  .00006799  00000+0  24535-2 0  9993", "line2": "2 30899  99.1765 246.1222 0031603 285.3037 251.2819 14.33658910966805"}}, "geometry": {"type": "Point", "coordinates": [45.86193262431395, -65.80748001556015]}}, {"type": "Feature", "properties": {"norad_id": 30903, "name": "FENGYUN 1C DEB", "group": "fengyun-1c-debris", "lat": 45.02793593551059, "lon": -134.55845232960914, "alt_km": 844.2187469070204, "timestamp": "2025-12-15T07:02:37.896053+00:00", "meta": {"OBJECT_NAME": "FENGYUN 1C DEB", "OBJECT_ID": "1999-025AYR", "EPOCH": "2025-12-14T11:55:39.272448", "MEAN_MOTION": 13.97601332, "ECCENTRICITY": 0.00967393, "INCLINATION": 99.3713, "RA_OF_ASC_NODE": 234.1438, "ARG_OF_PERICENTER": 88.4211, "MEAN_ANOMALY": 272.803, "EPHEMERIS_TYPE": 0, "CLASSIFICATION_TYPE": "U", "NORAD_CAT_ID": 30903, "ELEMENT_SET_NO": 999, "REV_AT_EPOCH": 68729, "BSTAR": 0.00011439316, "MEAN_MOTION_DOT": 1.22e-06, "MEAN_MOTION_DDOT": 0}, "tle": {"line1": "1 30903U 99025AYR 25348.49698232  .00000122  00000+0  11439-3 0  9990", "line2": "2 30903  99.3713 234.1438 0096739  88.4211 272.8030 13.97601332687291"}}, "geometry": {"type": "Point", "coordinates": [-134.55845232960914, 45.02793593551059]}}, {"type": "Feature", "properties": {"norad_id": 30905, "name": "FENGYUN 1C DEB", "group": "fengyun-1c-debris", "lat": -44.79587259679865, "lon": -124.2465456303874, "alt_km": 875.2840763312342, "timestamp": "2025-12-15T07:02:37.896064+00:00", "meta": {"OBJECT_NAME": "FENGYUN 1C DEB", "OBJECT_ID": "1999-025AYT", "EPOCH": "2025-12-13T23:30:09.952704", "MEAN_MOTION": 14.17850049, "ECCENTRICITY": 0.00566935, "INCLINATION": 98.8893, "RA_OF_ASC_NODE": 63.3779, "ARG_OF_PERICENTER": 77.2655, "MEAN_ANOMALY": 283.4849, "EPHEMERIS_TYPE": 0, "CLASSIFICATION_TYPE": "U", "NORAD_CAT_ID": 30905, "ELEMENT_SET_NO": 999, "REV_AT_EPOCH": 96140, "BSTAR": 0.0013631155, "MEAN_MOTION_DOT": 2.784e-05, "MEAN_MOTION_DDOT": 0}, "tle": {"line1": "1 30905U 99025AYT 25347.97928186  .00002784  00000+0  13631-2 0  9999", "line2": "2 30905  98.8893  63.3779 0056693  77.2655 283.4849 14.17850049961407"}}, "geometry": {"type": "Point", "coordinates": [-124.2465456303874, -44.79587259679865]}}, {"type": "Feature", "properties": {"norad_id": 30907, "name": "FENGYUN 1C DEB", "group": "fengyun-1c-debris", "lat": 24.59233757663115, "lon": -165.744701759691, "alt_km": 803.8442945690285, "timestamp": "2025-12-15T07:02:37.896076+00:00", "meta": {"OBJECT_NAME": "FENGYUN 1C DEB", "OBJECT_ID": "1999-025AYV", "EPOCH": "2025-12-09T21:21:03.076416", "MEAN_MOTION": 14.15071853, "ECCENTRICITY": 0.0056417, "INCLINATION": 99.9526, "RA_OF_ASC_NODE": 3.625, "ARG_OF_PERICENTER": 146.1044, "MEAN_ANOMALY": 214.3752, "EPHEMERIS_TYPE": 0, "CLASSIFICATION_TYPE": "U", "NORAD_CAT_ID": 30907, "ELEMENT_SET_NO": 999, "REV_AT_EPOCH": 1509, "BSTAR": 0.0012837834, "MEAN_MOTION_DOT": 2.474e-05, "MEAN_MOTION_DDOT": 0}, "tle": {"line1": "1 30907U 99025AYV 25343.88961894  .00002474  00000+0  12838-2 0  9994", "line2": "2 30907  99.9526   3.6250 0056417 146.1044 214.3752 14.15071853 15094"}}, "geometry": {"type": "Point", "coordinates": [-165.744701759691, 24.59233757663115]}}, {"type": "Feature", "properties": {"norad_id": 30912, "name": "FENGYUN 1C DEB", "group": "fengyun-1c-debris", "lat": 75.33834135870273, "lon": 153.6507568902363, "alt_km": 551.8739992548135, "timestamp": "2025-12-15T07:02:37.896086+00:00", "meta": {"OBJECT_NAME": "FENGYUN 1C DEB", "OBJECT_ID": "1999-025AZA", "EPOCH": "2025-12-13T12:46:32.762496", "MEAN_MOTION": 14.8941261, "ECCENTRICITY": 0.00592555, "INCLINATION": 98.9968, "RA_OF_ASC_NODE": 188.9199, "ARG_OF_PERICENTER": 95.2817, "MEAN_ANOMALY": 265.5161, "EPHEMERIS_TYPE": 0, "CLASSIFICATION_TYPE": "U", "NORAD_CAT_ID": 30912, "ELEMENT_SET_NO": 999, "REV_AT_EPOCH": 99416, "BSTAR": 0.0014920407, "MEAN_MOTION_DOT": 0.00014608, "MEAN_MOTION_DDOT": 0}, "tle": {"line1": "1 30912U 99025AZA 25347.53232364  .00014608  00000+0  14920-2 0  9995", "line2": "2 30912  98.9968 188.9199 0059255  95.2817 265.5161 14.89412610994160"}}, "geometry": {"type": "Point", "coordinates": [153.6507568902363, 75.33834135870273]}}, {"type": "Feature", "properties": {"norad_id": 30913, "name": "FENGYUN 1C DEB", "group": "fengyun-1c-debris", "lat": -10.1979700770578, "lon": -165.43947997390893, "alt_km": 846.9583341249509, "timestamp": "2025-12-15T07:02:37.896096+00:00", "meta": {"OBJECT_NAME": "FENGYUN 1C DEB", "OBJECT_ID": "1999-025AZB", "EPOCH": "2025-12-14T07:55:22.054368", "MEAN_MOTION": 14.04952848, "ECCENTRICITY": 0.004853, "INCLINATION": 98.7463, "RA_OF_ASC_NODE": 15.2188, "ARG_OF_PERICENTER": 176.8427, "MEAN_ANOMALY": 183.3056, "EPHEMERIS_TYPE": 0, "CLASSIFICATION_TYPE": "U", "NORAD_CAT_ID": 30913, "ELEMENT_SET_NO": 999, "REV_AT_EPOCH": 95940, "BSTAR": 0.00058069495, "MEAN_MOTION_DOT": 9.02e-06, "MEAN_MOTION_DDOT": 0}, "tle": {"line1": "1 30913U 99025AZB 25348.33011637  .00000902  00000+0  58069-3 0  9998", "line2": "2 30913  98.7463  15.2188 0048530 176.8427 183.3056 14.04952848959403"}}, "geometry": {"type": "Point", "coordinates": [-165.43947997390893, -10.1979700770578]}}]}